NORAD_CAT_ID,OBJECT_NAME,OBJECT_TYPE,EPOCH,MEAN_MOTION,ECCENTRICITY,INCLINATION,RA_OF_ASC_NODE,ARG_OF_PERICENTER,MEAN_ANOMALY,BSTAR,MEAN_MOTION_DOT,MEAN_MOTION_DDOT,TLE_LINE0,TLE_LINE1,TLE_LINE2,SEMIMAJOR_AXIS,PERIOD,APOGEE,PERIGEE,DECAYED
56451.0,STARLINK-5985,PAYLOAD,2024-05-26 22:10:51,14.98337391,0.0003507,69.9995,347.9626,263.0772,96.9988,0.00012604,1.411e-05,0.0,0 STARLINK-5985,1 56451U 23064D   24147.92420850  .00001411  00000-0  12604-3 0  9997,2 56451  69.9995 347.9626 0003507 263.0772  96.9988 14.98337391 57615,6950.17,96.107,574.472,569.598,0.0
56451.0,STARLINK-5985,PAYLOAD,2024-05-27 06:11:31,14.98348435,0.0003265,70.0004,347.1214,264.0135,96.0652,0.00010166,1.121e-05,0.0,0 STARLINK-5985,1 56451U 23064D   24148.25800195  .00001121  00000-0  10166-3 0  9997,2 56451  70.0004 347.1214 0003265 264.0135  96.0652 14.98348435 58025,6950.136,96.106,574.27,569.732,0.0
56451.0,STARLINK-5985,PAYLOAD,2024-05-27 14:12:12,14.98326996,0.0003166,70.0008,346.2789,268.0803,91.9993,0.00010493,1.159e-05,0.0,0 STARLINK-5985,1 56451U 23064D   24148.59181553  .00001159  00000-0  10493-3 0  9998,2 56451  70.0008 346.2789 0003166 268.0803  91.9993 14.98326996 57717,6950.202,96.107,574.268,569.867,0.0
56451.0,STARLINK-5985,PAYLOAD,2024-05-27 20:36:45,14.98327853,0.0003068,70.0003,345.6051,261.6425,98.4386,7.118e-05,7.56e-06,0.0,0 STARLINK-5985,1 56451U 23064D   24148.85885567  .00000756  00000-0  71180-4 0  9996,2 56451  70.0003 345.6051 0003068 261.6425  98.4386 14.98327853 58113,6950.2,96.107,574.197,569.932,0.0
56451.0,STARLINK-5985,PAYLOAD,2024-05-27 22:12:53,14.98328137,0.0003066,70.0003,345.4368,261.8303,98.2508,7.2269e-05,7.69e-06,0.0,0 STARLINK-5985,1 56451U 23064D   24148.92561553  .00000769  00000-0  72269-4 0  9993,2 56451  70.0003 345.4368 0003066 261.8303  98.2508 14.98328137 57767,6950.199,96.107,574.195,569.933,0.0
56451.0,STARLINK-5985,PAYLOAD,2024-05-28 14:14:13,14.9833432,0.0002981,70.0004,343.7536,259.7553,100.327,4.099e-05,3.96e-06,0.0,0 STARLINK-5985,1 56451U 23064D   24149.59321155  .00000396  00000-0  40990-4 0  9991,2 56451  70.0004 343.7536 0002981 259.7553 100.3270 14.98334320 57867,6950.18,96.107,574.116,569.973,0.0
56451.0,STARLINK-5985,PAYLOAD,2024-05-28 20:38:45,14.98334208,0.0002994,70.0005,343.0804,260.3181,99.764,3.4351e-05,3.17e-06,0.0,0 STARLINK-5985,1 56451U 23064D   24149.86025099  .00000317  00000-0  34351-4 0  9996,2 56451  70.0005 343.0804 0002994 260.3181  99.7640 14.98334208 58260,6950.18,96.107,574.126,569.964,0.0
56451.0,STARLINK-5985,PAYLOAD,2024-05-28 22:14:53,14.98334231,0.000299,70.0005,342.912,260.167,99.9152,3.3695e-05,3.09e-06,0.0,0 STARLINK-5985,1 56451U 23064D   24149.92701078  .00000309  00000-0  33695-4 0  9992,2 56451  70.0005 342.9120 0002990 260.1670  99.9152 14.98334231 57913,6950.18,96.107,574.123,569.967,0.0
56451.0,STARLINK-5985,PAYLOAD,2024-05-29 14:16:14,14.9832896,0.0002957,70.0005,341.2289,257.7091,102.3737,5.603e-05,5.76e-06,0.0,0 STARLINK-5985,1 56451U 23064D   24150.59461298  .00000576  00000-0  56030-4 0  9998,2 56451  70.0005 341.2289 0002957 257.7091 102.3737 14.98328960 58015,6950.196,96.107,574.116,570.006,0.0
56451.0,STARLINK-5985,PAYLOAD,2024-05-29 20:40:46,14.98329385,0.0002981,70.0005,340.5553,258.182,101.9005,5.6364e-05,5.8e-06,0.0,0 STARLINK-5985,1 56451U 23064D   24150.86165334  .00000580  00000-0  56364-4 0  9995,2 56451  70.0005 340.5553 0002981 258.1820 101.9005 14.98329385 58412,6950.195,96.107,574.132,569.988,0.0
56451.0,STARLINK-5985,PAYLOAD,2024-05-29 22:16:54,14.98329744,0.0002982,70.0005,340.387,258.4999,101.5826,5.8655e-05,6.07e-06,0.0,0 STARLINK-5985,1 56451U 23064D   24150.92841310  .00000607  00000-0  58655-4 0  9992,2 56451  70.0005 340.3870 0002982 258.4999 101.5826 14.98329744 58060,6950.194,96.107,574.131,569.986,0.0
56451.0,STARLINK-5985,PAYLOAD,2024-05-30 14:18:15,14.98331269,0.0003,70.0004,338.704,259.2172,100.8649,1.8307e-05,1.25e-06,0.0,0 STARLINK-5985,1 56451U 23064D   24151.59601309  .00000125  00000-0  18307-4 0  9993,2 56451  70.0004 338.7040 0003000 259.2172 100.8649 14.98331269 58164,6950.189,96.107,574.139,569.969,0.0
56451.0,STARLINK-5985,PAYLOAD,2024-05-30 20:42:47,14.98329561,0.0003052,70.0002,338.0304,260.5753,99.5061,-6.8427e-06,-1.75e-06,0.0,0 STARLINK-5985,1 56451U 23064D   24151.86305470 -.00000175  00000-0 -68427-5 0  9999,2 56451  70.0002 338.0304 0003052 260.5753  99.5061 14.98329561 58563,6950.194,96.107,574.18,569.938,0.0
56451.0,STARLINK-5985,PAYLOAD,2024-05-30 22:18:55,14.9832978,0.000311,70.0,337.861,265.7381,94.3423,-3.3906e-06,-1.33e-06,0.0,0 STARLINK-5985,1 56451U 23064D   24151.92981471 -.00000133  00000-0 -33906-5 0  9995,2 56451  70.0000 337.8610 0003110 265.7381  94.3423 14.98329780 58217,6950.194,96.107,574.22,569.897,0.0
56451.0,STARLINK-5985,PAYLOAD,2024-05-31 12:44:07,14.98336141,0.0003408,69.9992,336.3463,267.6191,92.4578,7.7458e-05,8.31e-06,0.0,0 STARLINK-5985,1 56451U 23064D   24152.53064808  .00000831  00000-0  77458-4 0  9991,2 56451  69.9992 336.3463 0003408 267.6191  92.4578 14.98336141 58662,6950.174,96.107,574.408,569.67,0.0
56451.0,STARLINK-5985,PAYLOAD,2024-05-31 14:20:15,14.98336851,0.0003394,69.9992,336.1778,267.5432,92.5338,8.6132e-05,9.35e-06,0.0,0 STARLINK-5985,1 56451U 23064D   24152.59740722  .00000935  00000-0  86132-4 0  9997,2 56451  69.9992 336.1778 0003394 267.5432  92.5338 14.98336851 58315,6950.172,96.107,574.396,569.678,0.0
56451.0,STARLINK-5985,PAYLOAD,2024-05-31 22:20:55,14.9834167,0.0003221,69.9996,335.3354,267.1204,92.9587,0.00015464,1.753e-05,0.0,0 STARLINK-5985,1 56451U 23064D   24152.93120098  .00001753  00000-0  15464-3 0  9991,2 56451  69.9996 335.3354 0003221 267.1204  92.9587 14.98341670 58362,6950.157,96.106,574.26,569.783,0.0
56451.0,STARLINK-5985,PAYLOAD,2024-06-01 12:46:09,14.98332758,0.0002701,70.0002,333.8202,270.5741,89.5109,-4.9605e-05,-6.85e-06,0.0,0 STARLINK-5985,1 56451U 23064D   24153.53205206 -.00000685  00000-0 -49605-4 0  9993,2 56451  70.0002 333.8202 0002701 270.5741  89.5109 14.98332758 58813,6950.184,96.107,573.927,570.172,0.0
56451.0,STARLINK-5985,PAYLOAD,2024-06-01 14:22:17,14.98326162,0.000308,69.9997,333.652,267.9677,92.1129,2.4141e-05,1.95e-06,0.0,0 STARLINK-5985,1 56451U 23064D   24153.59881328  .00000195  00000-0  24141-4 0  9996,2 56451  69.9997 333.6520 0003080 267.9677  92.1129 14.98326162 58468,6950.205,96.107,574.21,569.929,0.0
56451.0,STARLINK-5985,PAYLOAD,2024-06-02 11:12:02,14.98332605,0.0003102,70.0,331.4639,267.6913,92.3891,-5.2516e-05,-7.2e-06,0.0,0 STARLINK-5985,1 56451U 23064D   24154.46669167 -.00000720  00000-0 -52516-4 0  9991,2 56451  70.0000 331.4639 0003102 267.6913  92.3891 14.98332605 58599,6950.185,96.107,574.206,569.894,0.0
56451.0,STARLINK-5985,PAYLOAD,2024-06-03 04:49:30,14.9834063,0.0003021,70.0005,329.6123,268.3883,91.693,-8.4922e-05,-1.106e-05,0.0,0 STARLINK-5985,1 56451U 23064D   24155.20104596 -.00001106  00000-0 -84922-4 0  9999,2 56451  70.0005 329.6123 0003021 268.3883  91.6930 14.98340630 59061,6950.16,96.106,574.125,569.925,0.0
56451.0,STARLINK-5985,PAYLOAD,2024-06-03 11:14:02,14.98331647,0.0003054,70.0001,328.9392,268.4811,91.5998,0.00010939,1.213e-05,0.0,0 STARLINK-5985,1 56451U 23064D   24155.46808735  .00001213  00000-0  10939-3 0  9996,2 56451  70.0001 328.9392 0003054 268.4811  91.5998 14.98331647 58740,6950.188,96.107,574.175,569.93,0.0
56451.0,STARLINK-5985,PAYLOAD,2024-06-03 17:38:34,14.9833401,0.0003047,70.0002,328.2659,268.3477,91.7333,0.00012999,1.459e-05,0.0,0 STARLINK-5985,1 56451U 23064D   24155.73512532  .00001459  00000-0  12999-3 0  9993,2 56451  70.0002 328.2659 0003047 268.3477  91.7333 14.98334010 58785,6950.18,96.107,574.163,569.928,0.0
56451.0,STARLINK-5985,PAYLOAD,2024-06-04 04:51:30,14.98337713,0.0003373,70.0007,327.0871,271.1389,88.9383,0.00015083,1.707e-05,0.0,0 STARLINK-5985,1 56451U 23064D   24156.20244132  .00001707  00000-0  15083-3 0  9997,2 56451  70.0007 327.0871 0003373 271.1389  88.9383 14.98337713 59214,6950.169,96.107,574.378,569.69,0.0
56451.0,STARLINK-5985,PAYLOAD,2024-06-04 12:52:11,14.98330978,0.0003051,69.9964,326.2448,271.54,88.5409,6.1006e-05,6.35e-06,0.0,0 STARLINK-5985,1 56451U 23064D   24156.53624821  .00000635  00000-0  61006-4 0  9996,2 56451  69.9964 326.2448 0003051 271.5400  88.5409 14.98330978 59261,6950.19,96.107,574.175,569.934,0.0
56451.0,STARLINK-5985,PAYLOAD,2024-06-04 22:28:59,14.98337599,0.0003156,69.9995,325.2354,270.3839,89.6958,0.00010275,1.133e-05,0.0,0 STARLINK-5985,1 56451U 23064D   24156.93680157  .00001133  00000-0  10275-3 0  9999,2 56451  69.9995 325.2354 0003156 270.3839  89.6958 14.98337599 58962,6950.169,96.107,574.228,569.841,0.0
56451.0,STARLINK-5985,PAYLOAD,2024-06-05 11:18:05,14.98328447,0.0002914,69.9993,323.888,271.1411,88.9414,-4.0162e-05,-5.72e-06,0.0,0 STARLINK-5985,1 56451U 23064D   24157.47089121 -.00000572  00000-0 -40162-4 0  9990,2 56451  69.9993 323.8880 0002914 271.1411  88.9414 14.98328447 59045,6950.198,96.107,574.088,570.037,0.0
56451.0,STARLINK-5985,PAYLOAD,2024-06-05 17:42:37,14.98327549,0.0003026,69.9995,323.2153,271.3858,88.6955,-7.6423e-05,-1.005e-05,0.0,0 STARLINK-5985,1 56451U 23064D   24157.73793337 -.00001005  00000-0 -76423-4 0  9991,2 56451  69.9995 323.2153 0003026 271.3858  88.6955 14.98327549 59449,6950.2,96.107,574.169,569.962,0.0
56451.0,STARLINK-5985,PAYLOAD,2024-06-06 11:20:05,14.98331586,0.0003092,69.9995,321.3636,271.5508,88.5297,0.00011567,1.287e-05,0.0,0 STARLINK-5985,1 56451U 23064D   24158.47228715  .00001287  00000-0  11567-3 0  9993,2 56451  69.9995 321.3636 0003092 271.5508  88.5297 14.98331586 59557,6950.188,96.107,574.202,569.904,0.0
56451.0,STARLINK-5985,PAYLOAD,2024-06-06 17:44:37,14.98338656,0.0003108,69.9994,320.6904,271.5153,88.5649,0.00013255,1.489e-05,0.0,0 STARLINK-5985,1 56451U 23064D   24158.73932237  .00001489  00000-0  13255-3 0  9993,2 56451  69.9994 320.6904 0003108 271.5153  88.5649 14.98338656 59590,6950.166,96.106,574.191,569.871,0.0
